[
  {
    "CCSDS_OMM_VERS": "3.0",
    "COMMENT": "GENERATED VIA SPACE-TRACK.ORG API",
    "CREATION_DATE": "2026-02-19T17:59:09",
    "ORIGINATOR": "18 SPCS",
    "OBJECT_NAME": "COSMOS 2251 DEB",
    "OBJECT_ID": "1993-036CM",
    "CENTER_NAME": "EARTH",
    "REF_FRAME": "TEME",
    "TIME_SYSTEM": "UTC",
    "MEAN_ELEMENT_THEORY": "SGP4",
    "EPOCH": "2026-02-19T15:08:28.650624",
    "MEAN_MOTION": "14.33919491",
    "ECCENTRICITY": "0.00489108",
    "INCLINATION": "74.0657",
    "RA_OF_ASC_NODE": "286.9858",
    "ARG_OF_PERICENTER": "291.9211",
    "MEAN_ANOMALY": "89.2293",
    "EPHEMERIS_TYPE": "0",
    "CLASSIFICATION_TYPE": "U",
    "NORAD_CAT_ID": "33844",
    "ELEMENT_SET_NO": "999",
    "REV_AT_EPOCH": "88713",
    "BSTAR": "0.00028968060000",
    "MEAN_MOTION_DOT": "0.00000792",
    "MEAN_MOTION_DDOT": "0.0000000000000",
    "SEMIMAJOR_AXIS": "7156.796",
    "PERIOD": "100.424",
    "APOAPSIS": "813.666",
    "PERIAPSIS": "743.657",
    "OBJECT_TYPE": "DEBRIS",
    "RCS_SIZE": "SMALL",
    "COUNTRY_CODE": "CIS",
    "LAUNCH_DATE": "1993-06-16",
    "SITE": "PKMTR",
    "DECAY_DATE": null,
    "FILE": "5039972",
    "GP_ID": "313166209",
    "TLE_LINE0": "0 COSMOS 2251 DEB",
    "TLE_LINE1": "1 33844U 93036CM  26050.63088716  .00000792  00000-0  28968-3 0  9999",
    "TLE_LINE2": "2 33844  74.0657 286.9858 0048911 291.9211  89.2293 14.33919491887131"
  },
  {
    "CCSDS_OMM_VERS": "3.0",
    "COMMENT": "GENERATED VIA SPACE-TRACK.ORG API",
    "CREATION_DATE": "2026-02-19T17:59:09",
    "ORIGINATOR": "18 SPCS",
    "OBJECT_NAME": "SL-8 DEB",
    "OBJECT_ID": "1991-009AD",
    "CENTER_NAME": "EARTH",
    "REF_FRAME": "TEME",
    "TIME_SYSTEM": "UTC",
    "MEAN_ELEMENT_THEORY": "SGP4",
    "EPOCH": "2026-02-19T15:08:27.256992",
    "MEAN_MOTION": "12.19238632",
    "ECCENTRICITY": "0.01209624",
    "INCLINATION": "74.0643",
    "RA_OF_ASC_NODE": "24.2017",
    "ARG_OF_PERICENTER": "98.5178",
    "MEAN_ANOMALY": "18.1961",
    "EPHEMERIS_TYPE": "0",
    "CLASSIFICATION_TYPE": "U",
    "NORAD_CAT_ID": "21166",
    "ELEMENT_SET_NO": "999",
    "REV_AT_EPOCH": "55600",
    "BSTAR": "-0.00001433848000",
    "MEAN_MOTION_DOT": "-0.00000015",
    "MEAN_MOTION_DDOT": "0.0000000000000",
    "SEMIMAJOR_AXIS": "7973.996",
    "PERIOD": "118.106",
    "APOAPSIS": "1692.317",
    "PERIAPSIS": "1499.406",
    "OBJECT_TYPE": "DEBRIS",
    "RCS_SIZE": "MEDIUM",
    "COUNTRY_CODE": "CIS",
    "LAUNCH_DATE": "1991-02-12",
    "SITE": "PKMTR",
    "DECAY_DATE": null,
    "FILE": "5039972",
    "GP_ID": "313160577",
    "TLE_LINE0": "0 SL-8 DEB",
    "TLE_LINE1": "1 21166U 91009AD  26050.63087103 -.00000015  00000-0 -14338-4 0  9997",
    "TLE_LINE2": "2 21166  74.0643  24.2017 0120962  98.5178  18.1961 12.19238632556005"
  }
]